SatCatId,ObjectName,LaunchYear,OrbitalPeriod,LaunchMass,StatusCode,Inclination,Status,UcsData,OrbitClassEstimated,LaunchSiteCountry,Owner,UseType,Purpose,LaunchVehicleClass,TLE1,TLE2,MeanMotion,Eccentricity,OrbitClass
55282,STARLINK-5330,2023,96.11,-1.0,+,70.0,Active,0,LEO,USA,USA,Unknown,Unknown,Falcon,1 55282U 23010P   23265.12670994  .00001064  00000+0  96925-4 0  9999,2 55282  70.0001 152.4307 0003001 277.7430  82.3389 14.98334381 37735,14.98334381,0.0003001,LEO
55283,STARLINK-5317,2023,96.11,-1.0,+,70.0,Active,0,LEO,USA,USA,Unknown,Unknown,Falcon,1 55283U 23010Q   23265.14340768  .00000514  00000+0  50832-4 0  9991,2 55283  70.0015 152.4938 0002625 263.1951  96.8909 14.98332480 37735,14.9833248,0.0002625,LEO
55284,STARLINK-5337,2023,96.11,-1.0,+,70.0,Active,0,LEO,USA,USA,Unknown,Unknown,Falcon,1 55284U 23010R   23265.12253901  .00000025  00000+0  99243-5 0  9999,2 55284  70.0012 152.4183 0002686 264.4993  95.5860 14.98332183 37734,14.98332183,0.0002686,LEO
55285,STARLINK-5332,2023,96.1,-1.0,+,70.0,Active,0,LEO,USA,USA,Unknown,Unknown,Falcon,1 55285U 23010S   23265.02611554 -.00001927  00000+0 -15378-3 0  9990,2 55285  69.9994 112.7338 0002838 263.6473  96.4363 14.98319190 38692,14.9831919,0.0002838,LEO
55286,STARLINK-5338,2023,96.11,-1.0,+,70.0,Active,0,LEO,USA,USA,Unknown,Unknown,Falcon,1 55286U 23010T   23264.87197946 -.00001514  00000+0 -11912-3 0  9999,2 55286  70.0004 133.2842 0003075 275.7934  84.2874 14.98324220 38485,14.9832422,0.0003075,LEO
55287,STARLINK-5341,2023,96.11,-1.0,+,70.0,Active,0,LEO,USA,USA,Unknown,Unknown,Falcon,1 55287U 23010U   23264.88857727  .00003658  00000+0  31397-3 0  9999,2 55287  70.0005 113.3756 0002707 262.6817  97.4035 14.98363475 38970,14.98363475,0.0002707,LEO
55288,STARLINK-5311,2023,96.11,-1.0,+,70.0,Active,0,LEO,USA,USA,Unknown,Unknown,Falcon,1 55288U 23010V   23264.92637835 -.00000491  00000+0 -33380-4 0  9990,2 55288  70.0000 133.0699 0002947 270.2779  89.8042 14.98329563 38499,14.98329563,0.0002947,LEO
55289,STARLINK-5320,2023,96.11,-1.0,+,70.0,Active,0,LEO,USA,USA,Unknown,Unknown,Falcon,1 55289U 23010W   23265.07641735 -.00005567  00000+0 -45875-3 0  9992,2 55289  69.9999 132.7930 0003020 267.2731  92.8083 14.98360634 38207,14.98360634,0.000302,LEO
55290,STARLINK-5266,2023,96.11,-1.0,+,70.0,Active,0,LEO,USA,USA,Unknown,Unknown,Falcon,1 55290U 23010X   23265.06807839 -.00000104  00000+0 -93948-6 0  9991,2 55290  70.0002 132.7621 0003247 274.9732  85.1056 14.98333003 38217,14.98333003,0.0003247,LEO
55291,STARLINK-5327,2023,96.11,-1.0,+,70.0,Active,0,LEO,USA,USA,Unknown,Unknown,Falcon,1 55291U 23010Y   23265.06823982  .00000285  00000+0  31712-4 0  9996,2 55291  69.9999 132.7641 0002894 271.7001  88.3827 14.98337731 38205,14.98337731,0.0002894,LEO
55292,STARLINK-5325,2023,96.11,-1.0,+,70.0,Active,0,LEO,USA,USA,Unknown,Unknown,Falcon,1 55292U 23010Z   23265.05556019 -.00000265  00000+0 -14433-4 0  9991,2 55292  70.0001 132.7179 0003024 267.0178  93.0635 14.98329133 38205,14.98329133,0.0003024,LEO
55293,STARLINK-5287,2023,96.11,-1.0,+,70.0,Active,0,LEO,USA,USA,Unknown,Unknown,Falcon,1 55293U 23010AA  23264.92621358 -.00000707  00000+0 -51482-4 0  9992,2 55293  70.0005 133.0717 0002993 265.7998  94.2819 14.98328672 38496,14.98328672,0.0002993,LEO
55294,STARLINK-5286,2023,96.11,-1.0,+,70.0,Active,0,LEO,USA,USA,Unknown,Unknown,Falcon,1 55294U 23010AB  23265.13088667  .00000379  00000+0  39516-4 0  9994,2 55294  70.0006 152.4454 0002773 276.4240  83.6603 14.98333861 37731,14.98333861,0.0002773,LEO
55295,STARLINK-5293,2023,96.11,-1.0,+,70.0,Active,0,LEO,USA,USA,Unknown,Unknown,Falcon,1 55295U 23010AC  23264.90559417 -.00000293  00000+0 -16764-4 0  9992,2 55295  70.0003 153.2691 0002839 269.3216  90.7618 14.98327463 38005,14.98327463,0.0002839,LEO
55296,STARLINK-5285,2023,96.11,-1.0,+,70.0,Active,0,LEO,USA,USA,Unknown,Unknown,Falcon,1 55296U 23010AD  23264.90942338  .00013802  00000+0  11590-2 0  9999,2 55296  69.9997 133.0110 0003318 259.8860 100.1925 14.98436818 39372,14.98436818,0.0003318,LEO
55297,STARLINK-5284,2023,96.11,-1.0,+,70.0,Active,0,LEO,USA,USA,Unknown,Unknown,Falcon,1 55297U 23010AE  23265.11814538  .00000638  00000+0  61288-4 0  9998,2 55297  69.9997 132.5347 0002861 270.7972  89.2859 14.98328315 38214,14.98328315,0.0002861,LEO
55298,STARLINK-5272,2023,96.11,-1.0,+,70.0,Active,0,LEO,USA,USA,Unknown,Unknown,Falcon,1 55298U 23010AF  23265.03886980  .00000994  00000+0  91112-4 0  9994,2 55298  69.9994 132.6579 0002654 269.4797  90.6058 14.98331169 38207,14.98331169,0.0002654,LEO
55299,STARLINK-5270,2023,96.11,-1.0,+,70.0,Active,0,LEO,USA,USA,Unknown,Unknown,Falcon,1 55299U 23010AG  23264.90959083  .00014886  00000+0  12494-2 0  9994,2 55299  70.0004 133.0126 0003136 260.8300  99.2504 14.98433512 39372,14.98433512,0.0003136,LEO
55300,STARLINK-5308,2023,96.11,-1.0,+,70.0,Active,0,LEO,USA,USA,Unknown,Unknown,Falcon,1 55300U 23010AH  23264.90116650 -.00003048  00000+0 -24769-3 0  9991,2 55300  69.9999 132.9812 0002651 264.8397  95.2459 14.98339355 38493,14.98339355,0.0002651,LEO
55302,STARLINK-5321,2023,96.11,-1.0,+,70.0,Active,0,LEO,USA,USA,Unknown,Unknown,Falcon,1 55302U 23010AK  23264.91369879 -.00001186  00000+0 -91632-4 0  9992,2 55302  70.0001 133.0221 0002955 269.1788  90.9033 14.98319831 38494,14.98319831,0.0002955,LEO
55303,STARLINK-5322,2023,96.11,-1.0,+,70.0,Active,0,LEO,USA,USA,Unknown,Unknown,Falcon,1 55303U 23010AL  23265.11836321  .00000428  00000+0  43696-4 0  9990,2 55303  70.0003 152.4021 0002878 271.8987  88.1843 14.98333934 37739,14.98333934,0.0002878,LEO
55304,STARLINK-5318,2023,96.11,-1.0,+,70.0,Active,0,LEO,USA,USA,Unknown,Unknown,Falcon,1 55304U 23010AM  23265.03051321 -.00001286  00000+0 -10002-3 0  9990,2 55304  69.9994 132.6292 0002975 270.9660  89.1158 14.98333253 38209,14.98333253,0.0002975,LEO
55305,STARLINK-5316,2023,96.11,-1.0,+,70.0,Active,0,LEO,USA,USA,Unknown,Unknown,Falcon,1 55305U 23010AN  23265.09312382 -.00000379  00000+0 -23928-4 0  9998,2 55305  70.0001 132.8513 0002983 271.0718  89.0100 14.98332477 38208,14.98332477,0.0002983,LEO
55306,STARLINK-5295,2023,96.11,-1.0,+,70.0,Active,0,LEO,USA,USA,Unknown,Unknown,Falcon,1 55306U 23010AP  23264.86340668 -.00000707  00000+0 -51451-4 0  9998,2 55306  69.9993 113.3718 0002871 268.4073  91.6757 14.98327108 38984,14.98327108,0.0002871,LEO
55307,STARLINK-5288,2023,96.11,-1.0,+,70.0,Active,0,LEO,USA,USA,Unknown,Unknown,Falcon,1 55307U 23010AQ  23264.87191822 -.00000764  00000+0 -56214-4 0  9991,2 55307  69.9989 113.4024 0003109 268.5049  91.5754 14.98328403 38985,14.98328403,0.0003109,LEO
55308,STARLINK-5292,2023,96.11,-1.0,+,70.0,Active,0,LEO,USA,USA,Unknown,Unknown,Falcon,1 55308U 23010AR  23264.85088273 -.00000682  00000+0 -49415-4 0  9999,2 55308  69.9990 113.3265 0002803 264.3123  95.7716 14.98325603 39851,14.98325603,0.0002803,LEO
55309,STARLINK-5315,2023,96.11,-1.0,+,70.0,Active,0,LEO,USA,USA,Unknown,Unknown,Falcon,1 55309U 23010AS  23264.85923564 -.00000184  00000+0 -76085-5 0  9992,2 55309  69.9991 113.3563 0002860 270.7951  89.2880 14.98330753 38982,14.98330753,0.000286,LEO
55310,STARLINK-5309,2023,96.11,-1.0,+,70.0,Active,0,LEO,USA,USA,Unknown,Unknown,Falcon,1 55310U 23010AT  23264.98857864 -.00001043  00000+0 -79661-4 0  9994,2 55310  69.9996 113.0050 0002636 268.8147  91.2710 14.98328562 38680,14.98328562,0.0002636,LEO
55311,STARLINK-5312,2023,96.12,-1.0,+,70.0,Active,0,LEO,USA,USA,Unknown,Unknown,Falcon,1 55311U 23010AU  23265.58334491  .00012638  00000+0  11102-2 0  9992,2 55311  70.0007 111.5146 0002839 267.4581  51.4658 14.96715244 38772,14.96715244,0.0002839,LEO
55312,STARLINK-5296,2023,96.11,-1.0,+,70.0,Active,0,LEO,USA,USA,Unknown,Unknown,Falcon,1 55312U 23010AV  23265.03028046 -.00000397  00000+0 -25492-4 0  9999,2 55312  69.9988 112.6354 0002983 266.0600  94.0218 14.98331413 38698,14.98331413,0.0002983,LEO
55313,STARLINK-5313,2023,96.11,-1.0,+,70.0,Active,0,LEO,USA,USA,Unknown,Unknown,Falcon,1 55313U 23010AW  23264.84670919 -.00000818  00000+0 -60746-4 0  9999,2 55313  69.9983 113.3114 0003142 268.1229  91.9570 14.98325388 39854,14.98325388,0.0003142,LEO
55314,STARLINK-5305,2023,96.11,-1.0,+,70.0,Active,0,LEO,USA,USA,Unknown,Unknown,Falcon,1 55314U 23010AX  23264.90528627 -.00001160  00000+0 -89424-4 0  9990,2 55314  69.9986 113.1146 0002749 268.2554  91.8290 14.98328583 39864,14.98328583,0.0002749,LEO
55315,STARLINK-4623,2023,96.11,-1.0,+,70.0,Active,0,LEO,USA,USA,Unknown,Unknown,Falcon,1 55315U 23010AY  23264.86362904 -.00001120  00000+0 -86071-4 0  9991,2 55315  70.0000 133.2519 0003101 278.1820  81.8987 14.98329312 38470,14.98329312,0.0003101,LEO
55316,STARLINK-5257,2023,96.11,-1.0,+,70.0,Active,0,LEO,USA,USA,Unknown,Unknown,Falcon,1 55316U 23010AZ  23265.02193110 -.00007800  00000+0 -64593-3 0  9997,2 55316  69.9988 112.7355 0003464 270.1893  89.8869 14.98368111 38700,14.98368111,0.0003464,LEO
55317,STARLINK-5265,2023,96.09,-1.0,+,70.0,Active,0,LEO,USA,USA,Unknown,Unknown,Falcon,1 55317U 23010BA  23265.24307120 -.00044035  00000+0 -36834-2 0  9997,2 55317  69.9994 112.3139 0003766 291.4805  68.5952 14.98562369 38739,14.98562369,0.0003766,LEO
55318,STARLINK-5180,2023,96.11,-1.0,+,70.0,Active,0,LEO,USA,USA,Unknown,Unknown,Falcon,1 55318U 23010BB  23264.97188044 -.00000905  00000+0 -68037-4 0  9999,2 55318  69.9987 112.9453 0003170 270.4729  89.6067 14.98328008 38683,14.98328008,0.000317,LEO
55319,STARLINK-5196,2023,96.11,-1.0,+,70.0,Active,0,LEO,USA,USA,Unknown,Unknown,Falcon,1 55319U 23010BC  23264.90094677 -.00000875  00000+0 -65580-4 0  9997,2 55319  69.9987 113.1000 0003095 273.8623  86.2182 14.98327271 39864,14.98327271,0.0003095,LEO
55324,HAWK-6B,2023,95.48,-1.0,+,40.52,Active,0,LEO,USA,USA,Unknown,Unknown,Electron,1 55324U 23011A   23264.96638093  .00005029  00000+0  33051-3 0  9997,2 55324  40.5198 353.6536 0003740  82.9986 277.1244 15.08112462 36203,15.08112462,0.000374,LEO
